{"type": "FeatureCollection", "features": [ {"type": "Feature", "properties": {"norad_id": 30121, "name": "FENGYUN 1C DEB", "group": "fengyun-1c-debris", "lat": 22.05443276879406, "lon": -158.11761425117794, "alt_km": 735.9539144594501, "timestamp": "2025-12-18T21:31:51.275610+00:00", "meta": {"OBJECT_NAME": "FENGYUN 1C DEB", "OBJECT_ID": "1999-025SA", "EPOCH": "2025-12-18T07:31:47.241408", "MEAN_MOTION": 14.40066906, "ECCENTRICITY": 0.00309172, "INCLINATION": 102.1645, "RA_OF_ASC_NODE": 16.0436, "ARG_OF_PERICENTER": 151.102, "MEAN_ANOMALY": 223.2936, "EPHEMERIS_TYPE": 0, "CLASSIFICATION_TYPE": "U", "NORAD_CAT_ID": 30121, "ELEMENT_SET_NO": 999, "REV_AT_EPOCH": 97620, "BSTAR": 0.0018089628, "MEAN_MOTION_DOT": 5.667e-05, "MEAN_MOTION_DDOT": 0}, "tle": {"line1": "1 30121U 99025SA  25352.31374122  .00005667  00000+0  18090-2 0  9995", "line2": "2 30121 102.1645  16.0436 0030917 151.1020 223.2936 14.40066906976205"}}, "geometry": {"type": "Point", "coordinates": [-158.11761425117794, 22.05443276879406]}}, {"type": "Feature", "properties": {"norad_id": 30123, "name": "FENGYUN 1C DEB", "group": "fengyun-1c-debris", "lat": -22.651290987143284, "lon": -65.00991403837749, "alt_km": 803.3402994572198, "timestamp": "2025-12-18T21:31:51.275621+00:00", "meta": {"OBJECT_NAME": "FENGYUN 1C DEB", "OBJECT_ID": "1999-025SC", "EPOCH": "2025-12-17T18:41:34.365408", "MEAN_MOTION": 14.26021176, "ECCENTRICITY": 0.02307754, "INCLINATION": 96.9268, "RA_OF_ASC_NODE": 291.1962, "ARG_OF_PERICENTER": 69.5641, "MEAN_ANOMALY": 293.0161, "EPHEMERIS_TYPE": 0, "CLASSIFICATION_TYPE": "U", "NORAD_CAT_ID": 30123, "ELEMENT_SET_NO": 999, "REV_AT_EPOCH": 97319, "BSTAR": 0.0013352911, "MEAN_MOTION_DOT": 4.19e-05, "MEAN_MOTION_DDOT": 0}, "tle": {"line1": "1 30123U 99025SC  25351.77886997  .00004190  00000+0  13353-2 0  9991", "line2": "2 30123  96.9268 291.1962 0230775  69.5641 293.0161 14.26021176973197"}}, "geometry": {"type": "Point", "coordinates": [-65.00991403837749, -22.651290987143284]}}, {"type": "Feature", "properties": {"norad_id": 30124, "name": "FENGYUN 1C DEB", "group": "fengyun-1c-debris", "lat": 2.3381395036487507, "lon": 46.523239373965154, "alt_km": 838.8299601732951, "timestamp": "2025-12-18T21:31:51.275631+00:00", "meta": {"OBJECT_NAME": "FENGYUN 1C DEB", "OBJECT_ID": "1999-025SD", "EPOCH": "2025-12-18T03:05:46.821696", "MEAN_MOTION": 14.14250033, "ECCENTRICITY": 0.01430712, "INCLINATION": 99.1315, "RA_OF_ASC_NODE": 46.1145, "ARG_OF_PERICENTER": 90.6873, "MEAN_ANOMALY": 324.9296, "EPHEMERIS_TYPE": 0, "CLASSIFICATION_TYPE": "U", "NORAD_CAT_ID": 30124, "ELEMENT_SET_NO": 999, "REV_AT_EPOCH": 96991, "BSTAR": 0.0007097865, "MEAN_MOTION_DOT": 1.45e-05, "MEAN_MOTION_DDOT": 0}, "tle": {"line1": "1 30124U 99025SD  25352.12901414  .00001450  00000+0  70979-3 0  9998", "line2": "2 30124  99.1315  46.1145 0143071  90.6873 324.9296 14.14250033969912"}}, "geometry": {"type": "Point", "coordinates": [46.523239373965154, 2.3381395036487507]}}, {"type": "Feature", "properties": {"norad_id": 30125, "name": "FENGYUN 1C DEB", "group": "fengyun-1c-debris", "lat": -13.711733584603762, "lon": 93.79837013097054, "alt_km": 588.5893941049535, "timestamp": "2025-12-18T21:31:51.275641+00:00", "meta": {"OBJECT_NAME": "FENGYUN 1C DEB", "OBJECT_ID": "1999-025SE", "EPOCH": "2025-12-18T06:44:31.930368", "MEAN_MOTION": 14.22680227, "ECCENTRICITY": 0.03419159, "INCLINATION": 98.7239, "RA_OF_ASC_NODE": 91.0399, "ARG_OF_PERICENTER": 328.0897, "MEAN_ANOMALY": 102.6927, "EPHEMERIS_TYPE": 0, "CLASSIFICATION_TYPE": "U", "NORAD_CAT_ID": 30125, "ELEMENT_SET_NO": 999, "REV_AT_EPOCH": 97000, "BSTAR": 0.00051775105, "MEAN_MOTION_DOT": 2.059e-05, "MEAN_MOTION_DDOT": 0}, "tle": {"line1": "1 30125U 99025SE  25352.28092512  .00002059  00000+0  51775-3 0  9995", "line2": "2 30125  98.7239  91.0399 0341915 328.0897 102.6927 14.22680227970009"}}, "geometry": {"type": "Point", "coordinates": [93.79837013097054, -13.711733584603762]}}, {"type": "Feature", "properties": {"norad_id": 30127, "name": "FENGYUN 1C DEB", "group": "fengyun-1c-debris", "lat": 12.931934871373405, "lon": -152.7683876836234, "alt_km": 724.3066414669302, "timestamp": "2025-12-18T21:31:51.275651+00:00", "meta": {"OBJECT_NAME": "FENGYUN 1C DEB", "OBJECT_ID": "1999-025SG", "EPOCH": "2025-12-18T01:25:57.196128", "MEAN_MOTION": 14.38066612, "ECCENTRICITY": 0.00856707, "INCLINATION": 98.2065, "RA_OF_ASC_NODE": 208.3304, "ARG_OF_PERICENTER": 63.135, "MEAN_ANOMALY": 297.8564, "EPHEMERIS_TYPE": 0, "CLASSIFICATION_TYPE": "U", "NORAD_CAT_ID": 30127, "ELEMENT_SET_NO": 999, "REV_AT_EPOCH": 97312, "BSTAR": 0.001821293, "MEAN_MOTION_DOT": 5.718e-05, "MEAN_MOTION_DDOT": 0}, "tle": {"line1": "1 30127U 99025SG  25352.05968977  .00005718  00000+0  18213-2 0  9993", "line2": "2 30127  98.2065 208.3304 0085670  63.1350 297.8564 14.38066612973129"}}, "geometry": {"type": "Point", "coordinates": [-152.7683876836234, 12.931934871373405]}}, {"type": "Feature", "properties": {"norad_id": 30128, "name": "FENGYUN 1C DEB", "group": "fengyun-1c-debris", "lat": 8.010307000782166, "lon": 171.55067206821104, "alt_km": 708.4360704853552, "timestamp": "2025-12-18T21:31:51.275662+00:00", "meta": {"OBJECT_NAME": "FENGYUN 1C DEB", "OBJECT_ID": "1999-025SH", "EPOCH": "2025-12-18T06:21:37.857600", "MEAN_MOTION": 14.4620293, "ECCENTRICITY": 0.01075156, "INCLINATION": 96.9792, "RA_OF_ASC_NODE": 350.042, "ARG_OF_PERICENTER": 107.5526, "MEAN_ANOMALY": 14.1925, "EPHEMERIS_TYPE": 0, "CLASSIFICATION_TYPE": "U", "NORAD_CAT_ID": 30128, "ELEMENT_SET_NO": 999, "REV_AT_EPOCH": 97391, "BSTAR": 0.0020116531, "MEAN_MOTION_DOT": 7.704e-05, "MEAN_MOTION_DDOT": 0}, "tle": {"line1": "1 30128U 99025SH  25352.26502150  .00007704  00000+0  20117-2 0  9997", "line2": "2 30128  96.9792 350.0420 0107515 107.5526  14.1925 14.46202930973919"}}, "geometry": {"type": "Point", "coordinates": [171.55067206821104, 8.010307000782166]}}, {"type": "Feature", "properties": {"norad_id": 30129, "name": "FENGYUN 1C DEB", "group": "fengyun-1c-debris", "lat": -41.33566301009665, "lon": 106.88691297839293, "alt_km": 1008.6799016861269, "timestamp": "2025-12-18T21:31:51.275672+00:00", "meta": {"OBJECT_NAME": "FENGYUN 1C DEB", "OBJECT_ID": "1999-025SJ", "EPOCH": "2025-12-18T01:55:57.472320", "MEAN_MOTION": 14.01588803, "ECCENTRICITY": 0.0188554, "INCLINATION": 98.029, "RA_OF_ASC_NODE": 293.2994, "ARG_OF_PERICENTER": 77.293, "MEAN_ANOMALY": 345.2698, "EPHEMERIS_TYPE": 0, "CLASSIFICATION_TYPE": "U", "NORAD_CAT_ID": 30129, "ELEMENT_SET_NO": 999, "REV_AT_EPOCH": 96553, "BSTAR": 0.00052071137, "MEAN_MOTION_DOT": 8.86e-06, "MEAN_MOTION_DDOT": 0}, "tle": {"line1": "1 30129U 99025SJ  25352.08052630  .00000886  00000+0  52071-3 0  9990", "line2": "2 30129  98.0290 293.2994 0188554  77.2930 345.2698 14.01588803965535"}}, "geometry": {"type": "Point", "coordinates": [106.88691297839293, -41.33566301009665]}}, {"type": "Feature", "properties": {"norad_id": 30131, "name": "FENGYUN 1C DEB", "group": "fengyun-1c-debris", "lat": 4.944047419718893, "lon": 84.1091917330705, "alt_km": 866.2153754056626, "timestamp": "2025-12-18T21:31:51.275683+00:00", "meta": {"OBJECT_NAME": "FENGYUN 1C DEB", "OBJECT_ID": "1999-025SL", "EPOCH": "2025-12-18T04:52:54.420960", "MEAN_MOTION": 14.21246413, "ECCENTRICITY": 0.00826183, "INCLINATION": 99.0762, "RA_OF_ASC_NODE": 84.1888, "ARG_OF_PERICENTER": 143.5221, "MEAN_ANOMALY": 274.8522, "EPHEMERIS_TYPE": 0, "CLASSIFICATION_TYPE": "U", "NORAD_CAT_ID": 30131, "ELEMENT_SET_NO": 999, "REV_AT_EPOCH": 96766, "BSTAR": 0.0019980048, "MEAN_MOTION_DOT": 4.461e-05, "MEAN_MOTION_DDOT": 0}, "tle": {"line1": "1 30131U 99025SL  25352.20340765  .00004461  00000+0  19980-2 0  9990", "line2": "2 30131  99.0762  84.1888 0082618 143.5221 274.8522 14.21246413967665"}}, "geometry": {"type": "Point", "coordinates": [84.1091917330705, 4.944047419718893]}}, {"type": "Feature", "properties": {"norad_id": 30132, "name": "FENGYUN 1C DEB", "group": "fengyun-1c-debris", "lat": 45.41541047525033, "lon": 136.57443997176296, "alt_km": 920.7524733742002, "timestamp": "2025-12-18T21:31:51.275693+00:00", "meta": {"OBJECT_NAME": "FENGYUN 1C DEB", "OBJECT_ID": "1999-025SM", "EPOCH": "2025-12-17T09:20:39.349248", "MEAN_MOTION": 13.9485521, "ECCENTRICITY": 0.01056712, "INCLINATION": 99.5778, "RA_OF_ASC_NODE": 305.1463, "ARG_OF_PERICENTER": 37.3489, "MEAN_ANOMALY": 87.9201, "EPHEMERIS_TYPE": 0, "CLASSIFICATION_TYPE": "U", "NORAD_CAT_ID": 30132, "ELEMENT_SET_NO": 999, "REV_AT_EPOCH": 96154, "BSTAR": 0.0004394308, "MEAN_MOTION_DOT": 5.7e-06, "MEAN_MOTION_DDOT": 0}, "tle": {"line1": "1 30132U 99025SM  25351.38934432  .00000570  00000+0  43943-3 0  9993", "line2": "2 30132  99.5778 305.1463 0105671  37.3489  87.9201 13.94855210961542"}}, "geometry": {"type": "Point", "coordinates": [136.57443997176296, 45.41541047525033]}}, {"type": "Feature", "properties": {"norad_id": 30133, "name": "FENGYUN 1C DEB", "group": "fengyun-1c-debris", "lat": -77.6200979530032, "lon": -159.06666252841364, "alt_km": 827.6969553012023, "timestamp": "2025-12-18T21:31:51.275704+00:00", "meta": {"OBJECT_NAME": "FENGYUN 1C DEB", "OBJECT_ID": "1999-025SN", "EPOCH": "2025-12-18T00:18:53.588736", "MEAN_MOTION": 14.06695126, "ECCENTRICITY": 0.00857689, "INCLINATION": 98.3235, "RA_OF_ASC_NODE": 158.2869, "ARG_OF_PERICENTER": 245.4619, "MEAN_ANOMALY": 239.0143, "EPHEMERIS_TYPE": 0, "CLASSIFICATION_TYPE": "U", "NORAD_CAT_ID": 30133, "ELEMENT_SET_NO": 999, "REV_AT_EPOCH": 96452, "BSTAR": 0.0011147087, "MEAN_MOTION_DOT": 1.874e-05, "MEAN_MOTION_DDOT": 0}, "tle": {"line1": "1 30133U 99025SN  25352.01312024  .00001874  00000+0  11147-2 0  9990", "line2": "2 30133  98.3235 158.2869 0085768 245.4619 239.0143 14.06695126964524"}}, "geometry": {"type": "Point", "coordinates": [-159.06666252841364, -77.6200979530032]}}]}